     2              NAVIGATION DATA                         RINEX VERSION / TYPE
CCRINEXN V1.6.0 UX  CDDIS               20-MAY-16 15:33     PGM / RUN BY / DATE 
IGS BROADCAST EPHEMERIS FILE                                COMMENT             
    0.1118D-07  0.2235D-07 -0.5960D-07 -0.1192D-06          ION ALPHA           
    0.9830D+05  0.1311D+06 -0.1311D+06 -0.5898D+06          ION BETA            
   -0.279396772385D-08-0.621724893790D-14   503808     1897 DELTA-UTC: A0,A1,T,W
    17                                                      LEAP SECONDS        
                                                            END OF HEADER       
30 16  5 19 20  0  0.0 0.126549508423D-03 0.306954461848D-11 0.000000000000D+00
    0.680000000000D+02 0.413437500000D+02 0.502413784694D-08-0.921844014778D+00
    0.198185443878D-05 0.206773297396D-02 0.182911753654D-05 0.515360216141D+04
    0.417600000000D+06 0.372529029846D-07 0.116775086231D+01 0.391155481338D-07
    0.952131444142D+00 0.336343750000D+03 0.299885860830D+01-0.856714257016D-08
    0.273939982128D-09 0.100000000000D+01 0.189700000000D+04 0.000000000000D+00
    0.200000000000D+01 0.000000000000D+00 0.325962901115D-08 0.680000000000D+02
    0.410418000000D+06 0.400000000000D+01 0.000000000000D+00 0.000000000000D+00
31 16  5 19 20  0  0.0 0.268186908215D-03-0.193267624127D-11 0.000000000000D+00
    0.330000000000D+02 0.480625000000D+02 0.470626746350D-08-0.118254917545D+01
    0.216625630856D-05 0.817433057819D-02 0.217184424400D-05 0.515374562454D+04
    0.417600000000D+06-0.521540641785D-07 0.113280548276D+01-0.119209289551D-06
    0.971182122205D+00 0.343250000000D+03-0.397718394590D+00-0.845070914881D-08
    0.364658046614D-09 0.000000000000D+00 0.189700000000D+04 0.000000000000D+00
    0.200000000000D+01 0.000000000000D+00-0.135041773319D-07 0.330000000000D+02
    0.410400000000D+06 0.400000000000D+01 0.000000000000D+00 0.000000000000D+00
32 16  5 19 20  0  0.0-0.870367512107D-05-0.613908923697D-11 0.000000000000D+00
    0.131000000000D+03 0.908125000000D+02 0.416695928487D-08 0.210108592305D+01
    0.489875674248D-05 0.352225266397D-03 0.110603868961D-04 0.515361800003D+04
    0.417600000000D+06-0.186264514923D-07 0.469034138297D-01-0.279396772385D-07
    0.960182910764D+00 0.161968750000D+03-0.234661783492D+01-0.786782772661D-08
    0.195722438339D-09 0.000000000000D+00 0.189700000000D+04 0.000000000000D+00
    0.400000000000D+01 0.000000000000D+00 0.465661287308D-09 0.131000000000D+03
    0.410400000000D+06 0.400000000000D+01 0.000000000000D+00 0.000000000000D+00
 3 16  5 19 21 59 44.0-0.593280419707D-04-0.375166564481D-11 0.000000000000D+00
    0.140000000000D+02-0.416250000000D+02 0.463305012799D-08 0.200308691638D+01
   -0.233575701714D-05 0.238211592659D-03 0.824034214020D-05 0.515369960594D+04
    0.424784000000D+06 0.372529029846D-07-0.993751061195D+00-0.931322574616D-08
    0.959040898394D+00 0.218718750000D+03-0.196124022080D+01-0.806497879588D-08
   -0.660741808263D-09 0.100000000000D+01 0.189700000000D+04 0.000000000000D+00
    0.200000000000D+01 0.000000000000D+00 0.186264514923D-08 0.140000000000D+02
    0.423360000000D+06 0.400000000000D+01 0.000000000000D+00 0.000000000000D+00
 7 16  5 19 21 59 44.0 0.453623477369D-03-0.227373675443D-11 0.000000000000D+00
    0.370000000000D+02 0.534687500000D+02 0.472341103474D-08-0.162580713168D-01
    0.290945172310D-05 0.941822980531D-02 0.229291617870D-05 0.515364771271D+04
    0.424784000000D+06 0.521540641785D-07 0.112342557096D+01 0.122934579849D-06
    0.966371810568D+00 0.338593750000D+03-0.267803704695D+01-0.853142679674D-08
    0.299655338990D-09 0.100000000000D+01 0.189700000000D+04 0.000000000000D+00
    0.200000000000D+01 0.000000000000D+00-0.111758708954D-07 0.370000000000D+02
    0.417618000000D+06 0.400000000000D+01 0.000000000000D+00 0.000000000000D+00
11 16  5 19 21 59 44.0-0.647497363388D-03-0.136424205266D-11 0.000000000000D+00
    0.900000000000D+01 0.399062500000D+02 0.644598278677D-08 0.101508070230D+00
    0.232458114624D-05 0.163521877257D-01 0.701844692230D-05 0.515365713692D+04
    0.424784000000D+06-0.195577740669D-06-0.241206989429D+01-0.558793544769D-08
    0.896584292529D+00 0.211750000000D+03 0.152403976946D+01-0.925038531568D-08
    0.391087718945D-09 0.100000000000D+01 0.189700000000D+04 0.000000000000D+00
    0.200000000000D+01 0.000000000000D+00-0.121071934700D-07 0.900000000000D+01
    0.423360000000D+06 0.400000000000D+01 0.000000000000D+00 0.000000000000D+00
25 16  5 19 21 59 44.0-0.174484215677D-03-0.704858393874D-11 0.000000000000D+00
    0.300000000000D+02-0.932187500000D+02 0.432375153018D-08-0.110321811383D+01
   -0.474229454994D-05 0.561535242014D-02 0.604242086411D-05 0.515375148964D+04
    0.424784000000D+06 0.894069671631D-07 0.214910614756D+01 0.670552253723D-07
    0.978418823917D+00 0.271968750000D+03 0.771219608187D+00-0.801604818630D-08
   -0.218223375594D-09 0.000000000000D+00 0.189700000000D+04 0.000000000000D+00
    0.200000000000D+01 0.000000000000D+00 0.558793544769D-08 0.300000000000D+02
    0.417600000000D+06 0.400000000000D+01 0.000000000000D+00 0.000000000000D+00
26 16  5 19 21 59 44.0-0.369481742382D-03-0.122781784739D-10 0.000000000000D+00
    0.600000000000D+01-0.105687500000D+03 0.467483758289D-08-0.191062320844D+01
   -0.571832060814D-05 0.102451059502D-02 0.610388815403D-05 0.515376127052D+04
    0.424784000000D+06 0.633299350738D-07 0.214026205290D+01-0.204890966415D-07
    0.960389350449D+00 0.261437500000D+03 0.184835415891D+00-0.826963017758D-08
   -0.270011247052D-09 0.000000000000D+00 0.189700000000D+04 0.000000000000D+00
    0.200000000000D+01 0.000000000000D+00 0.698491930962D-08 0.600000000000D+01
    0.419760000000D+06 0.400000000000D+01 0.000000000000D+00 0.000000000000D+00
 1 16  5 19 22  0  0.0 0.209114514291D-04 0.125055521494D-11 0.000000000000D+00
    0.330000000000D+02 0.221250000000D+02 0.492056210402D-08 0.715158226239D+00
    0.133551657200D-05 0.544489221647D-02 0.493042171001D-05 0.515363780594D+04
    0.424800000000D+06 0.186264514923D-07-0.203557243575D+01 0.502914190292D-07
    0.964058994138D+00 0.281625000000D+03 0.458231964366D+00-0.830391732006D-08
    0.100361323309D-09 0.100000000000D+01 0.189700000000D+04 0.000000000000D+00
    0.200000000000D+01 0.000000000000D+00 0.512227416039D-08 0.330000000000D+02
    0.417618000000D+06 0.400000000000D+01 0.000000000000D+00 0.000000000000D+00
 2 16  5 19 22  0  0.0 0.590853393078D-03-0.227373675443D-11 0.000000000000D+00
    0.750000000000D+02 0.240937500000D+02 0.537879563112D-08 0.107058852921D+01
    0.131689012051D-05 0.156667373376D-01 0.561960041523D-05 0.515377165413D+04
    0.424800000000D+06-0.236555933952D-06-0.208094398125D+01 0.130385160446D-06
    0.942857705077D+00 0.268187500000D+03-0.211841999256D+01-0.869179039853D-08
    0.596453442192D-10 0.100000000000D+01 0.189700000000D+04 0.000000000000D+00
    0.200000000000D+01 0.000000000000D+00-0.200234353542D-07 0.750000000000D+02
    0.417600000000D+06 0.000000000000D+00 0.000000000000D+00 0.000000000000D+00
 3 16  5 19 22  0  0.0-0.593271106482D-04-0.375166564481D-11 0.000000000000D+00
    0.800000000000D+02-0.416250000000D+02 0.463305012799D-08 0.200543789596D+01
   -0.233575701714D-05 0.238214968704D-03 0.824034214020D-05 0.515369960976D+04
    0.424800000000D+06 0.372529029846D-07-0.993751204561D+00-0.931322574616D-08
    0.959040888154D+00 0.218718750000D+03-0.196125750371D+01-0.806497879588D-08
   -0.660741808263D-09 0.100000000000D+01 0.189700000000D+04 0.000000000000D+00
    0.280000000000D+01 0.000000000000D+00 0.186264514923D-08 0.800000000000D+02
    0.417618000000D+06 0.400000000000D+01 0.000000000000D+00 0.000000000000D+00
 4 16  5 19 22  0  0.0-0.256508123130D-03-0.568434188608D-12 0.000000000000D+00
    0.350000000000D+02-0.108968750000D+03 0.536950937590D-08-0.238993334415D+01
   -0.585615634918D-05 0.850065134000D-02 0.655651092529D-05 0.515364635086D+04
    0.424800000000D+06 0.180676579475D-06 0.217070885988D+01-0.484287738800D-07
    0.983205082255D+00 0.261687500000D+03 0.886510556712D+00-0.789104297933D-08
   -0.206794328100D-09 0.000000000000D+00 0.189700000000D+04 0.000000000000D+00
    0.200000000000D+01 0.630000000000D+02-0.195577740669D-07 0.350000000000D+02
    0.417600000000D+06 0.400000000000D+01 0.000000000000D+00 0.000000000000D+00
 5 16  5 19 22  0  0.0-0.119534321129D-03 0.306954461848D-11 0.000000000000D+00
    0.490000000000D+02-0.408125000000D+02 0.486413118202D-08-0.269226214490D+01
   -0.210106372833D-05 0.460728839971D-02 0.783614814282D-05 0.515379222298D+04
    0.424800000000D+06-0.167638063431D-07-0.100554748984D+01-0.111758708954D-07
    0.946106710079D+00 0.221406250000D+03 0.452569745792D+00-0.812390982202D-08
   -0.499306512406D-09 0.100000000000D+01 0.189700000000D+04 0.000000000000D+00
    0.200000000000D+01 0.000000000000D+00-0.107102096081D-07 0.490000000000D+02
    0.417618000000D+06 0.400000000000D+01 0.000000000000D+00 0.000000000000D+00
 6 16  5 19 22  0  0.0 0.192617066204D-03 0.545696821064D-11 0.000000000000D+00
    0.210000000000D+02 0.220312500000D+02 0.477698469487D-08 0.103486346846D+01
    0.104308128357D-05 0.435716588981D-03 0.521913170815D-05 0.515368593216D+04
    0.424800000000D+06-0.223517417908D-07-0.204400788472D+01 0.000000000000D+00
    0.963896621935D+00 0.282281250000D+03-0.142150870256D+01-0.815962559544D-08
    0.144291724615D-09 0.100000000000D+01 0.189700000000D+04 0.000000000000D+00
    0.200000000000D+01 0.000000000000D+00 0.419095158577D-08 0.210000000000D+02
    0.423912000000D+06 0.400000000000D+01 0.000000000000D+00 0.000000000000D+00
